NORAD_CAT_ID,OBJECT_NAME,OBJECT_TYPE,EPOCH,MEAN_MOTION,ECCENTRICITY,INCLINATION,RA_OF_ASC_NODE,ARG_OF_PERICENTER,MEAN_ANOMALY,BSTAR,MEAN_MOTION_DOT,MEAN_MOTION_DDOT,TLE_LINE0,TLE_LINE1,TLE_LINE2,SEMIMAJOR_AXIS,PERIOD,APOGEE,PERIGEE,DECAYED
52287.0,STARLINK-3822,PAYLOAD,2023-04-28 06:12:26,15.08846997,0.0001398,53.2157,126.7305,88.8078,271.3074,0.00021934,3.205e-05,0.0,0 STARLINK-3822,1 52287U 22041AC  23118.25863927  .00003205  00000-0  21934-3 0  9992,2 52287  53.2157 126.7305 0001398  88.8078 271.3074 15.08846997 57613,6917.859,95.437,540.691,538.757,0.0
52287.0,STARLINK-3822,PAYLOAD,2023-04-28 09:23:12,15.08852391,0.0001432,53.2151,126.1357,89.6806,270.435,0.00026331,3.906e-05,0.0,0 STARLINK-3822,1 52287U 22041AC  23118.39111725  .00003906  00000-0  26331-3 0  9993,2 52287  53.2151 126.1357 0001432  89.6806 270.4350 15.08852391 56414,6917.843,95.437,540.698,538.717,0.0
52287.0,STARLINK-3822,PAYLOAD,2023-04-29 04:27:50,15.0884361,0.0001467,53.2149,122.5675,92.8618,267.2542,2.6885e-05,1.4e-06,0.0,0 STARLINK-3822,1 52287U 22041AC  23119.18599859  .00000140  00000-0  26885-4 0  9991,2 52287  53.2149 122.5675 0001467  92.8618 267.2542 15.08843610 57758,6917.869,95.437,540.749,538.72,0.0
52287.0,STARLINK-3822,PAYLOAD,2023-04-29 09:13:59,15.08844023,0.0001443,53.2148,121.6751,89.3112,270.8045,1.9674e-05,2.5e-07,0.0,0 STARLINK-3822,1 52287U 22041AC  23119.38471763  .00000025  00000-0  19674-4 0  9996,2 52287  53.2148 121.6751 0001443  89.3112 270.8045 15.08844023 56561,6917.868,95.437,540.731,538.735,0.0
52287.0,STARLINK-3822,PAYLOAD,2023-04-30 12:15:32,15.08847886,0.0001417,53.2154,116.62,95.0308,265.0846,7.3782e-06,-1.71e-06,0.0,0 STARLINK-3822,1 52287U 22041AC  23120.51079508 -.00000171  00000-0  73782-5 0  9998,2 52287  53.2154 116.6200 0001417  95.0308 265.0846 15.08847886 57952,6917.856,95.437,540.702,538.741,0.0
52287.0,STARLINK-3822,PAYLOAD,2023-05-01 05:44:48,15.08833025,0.0001379,53.2153,113.3478,93.9397,266.1753,-3.1513e-07,-2.93e-06,0.0,0 STARLINK-3822,1 52287U 22041AC  23121.23944565 -.00000293  00000-0 -31513-6 0  9995,2 52287  53.2153 113.3478 0001379  93.9397 266.1753 15.08833025 58066,6917.902,95.438,540.721,538.813,0.0
52287.0,STARLINK-3822,PAYLOAD,2023-05-01 08:55:34,15.08834231,0.0001379,53.2153,112.7528,95.5677,264.5472,7.9657e-06,-1.61e-06,0.0,0 STARLINK-3822,1 52287U 22041AC  23121.37192487 -.00000161  00000-0  79657-5 0  9991,2 52287  53.2153 112.7528 0001379  95.5677 264.5472 15.08834231 56860,6917.898,95.438,540.717,538.809,0.0
52287.0,STARLINK-3822,PAYLOAD,2023-05-01 23:14:02,15.08765763,0.0001663,53.2176,110.0741,117.2095,242.9066,0.0010613,0.00016609,0.0,0 STARLINK-3822,1 52287U 22041AC  23121.96808976  .00016609  00000-0  10613-2 0  9990,2 52287  53.2176 110.0741 0001663 117.2095 242.9066 15.08765763 58173,6918.107,95.442,541.123,538.822,0.0
52287.0,STARLINK-3822,PAYLOAD,2023-05-02 05:35:34,15.08846186,0.00014,53.2161,108.8873,103.5915,256.5233,9.9461e-05,1.296e-05,0.0,0 STARLINK-3822,1 52287U 22041AC  23122.23303505  .00001296  00000-0  99461-4 0  9995,2 52287  53.2161 108.8873 0001400 103.5915 256.5233 15.08846186 58217,6917.861,95.437,540.695,538.758,0.0
52287.0,STARLINK-3822,PAYLOAD,2023-05-02 08:46:20,15.08847319,0.0001372,53.2158,108.2921,102.7263,257.3882,0.00010585,1.397e-05,0.0,0 STARLINK-3822,1 52287U 22041AC  23122.36551378  .00001397  00000-0  10585-3 0  9993,2 52287  53.2158 108.2921 0001372 102.7263 257.3882 15.08847319 57011,6917.858,95.437,540.672,538.774,0.0
52287.0,STARLINK-3822,PAYLOAD,2023-05-03 05:26:21,15.08842689,0.000125,53.2154,104.4267,93.9334,266.1801,0.00012271,1.666e-05,0.0,0 STARLINK-3822,1 52287U 22041AC  23123.22663721  .00001666  00000-0  12271-3 0  9998,2 52287  53.2154 104.4267 0001250  93.9334 266.1801 15.08842689 58366,6917.872,95.437,540.602,538.872,0.0
52287.0,STARLINK-3822,PAYLOAD,2023-05-03 08:37:07,15.08842992,0.0001261,53.2155,103.8322,94.052,266.0616,0.00012133,1.644e-05,0.0,0 STARLINK-3822,1 52287U 22041AC  23123.35911709  .00001644  00000-0  12133-3 0  9997,2 52287  53.2155 103.8322 0001261  94.0520 266.0616 15.08842992 57160,6917.871,95.437,540.609,538.864,0.0
52287.0,STARLINK-3822,PAYLOAD,2023-05-04 05:17:08,15.08841812,0.0001281,53.2154,99.9657,95.7436,264.3702,2.3581e-06,-2.5e-06,0.0,0 STARLINK-3822,1 52287U 22041AC  23124.22023972 -.00000250  00000-0  23581-5 0  9994,2 52287  53.2154  99.9657 0001281  95.7436 264.3702 15.08841812 58518,6917.875,95.437,540.626,538.854,0.0
52287.0,STARLINK-3822,PAYLOAD,2023-05-04 08:27:54,15.088446,0.0001461,53.2161,99.3714,99.1955,260.9203,-4.178e-05,-9.53e-06,0.0,0 STARLINK-3822,1 52287U 22041AC  23124.35271866 -.00000953  00000-0 -41780-4 0  9996,2 52287  53.2161  99.3714 0001461  99.1955 260.9203 15.08844600 57311,6917.866,95.437,540.742,538.721,0.0
52287.0,STARLINK-3822,PAYLOAD,2023-05-04 21:11:00,15.08835595,0.0001261,53.2165,96.9935,97.8095,262.304,1.1801e-05,-1e-06,0.0,0 STARLINK-3822,1 52287U 22041AC  23124.88264348 -.00000100  00000-0  11801-4 0  9995,2 52287  53.2165  96.9935 0001261  97.8095 262.3040 15.08835595 57397,6917.894,95.438,540.631,538.887,0.0
52287.0,STARLINK-3822,PAYLOAD,2023-05-05 08:18:41,15.08841619,0.0001216,53.2166,94.9121,97.702,262.411,3.7339e-05,3.06e-06,0.0,0 STARLINK-3822,1 52287U 22041AC  23125.34631922  .00000306  00000-0  37339-4 0  9994,2 52287  53.2166  94.9121 0001216  97.7020 262.4110 15.08841619 58686,6917.875,95.437,540.582,538.899,0.0
52287.0,STARLINK-3822,PAYLOAD,2023-05-05 21:01:47,15.08835279,0.0001279,53.2164,92.5332,100.6416,259.4721,6.1224e-05,6.87e-06,0.0,0 STARLINK-3822,1 52287U 22041AC  23125.87624372  .00000687  00000-0  61224-4 0  9995,2 52287  53.2164  92.5332 0001279 100.6416 259.4721 15.08835279 57547,6917.895,95.438,540.645,538.875,0.0
52287.0,STARLINK-3822,PAYLOAD,2023-05-05 22:37:11,15.08831375,0.0001277,53.2165,92.2357,100.0876,260.026,4.968e-06,-2.09e-06,0.0,0 STARLINK-3822,1 52287U 22041AC  23125.94248898 -.00000209  00000-0  49680-5 0  9992,2 52287  53.2165  92.2357 0001277 100.0876 260.0260 15.08831375 58779,6917.907,95.438,540.655,538.888,0.0
52287.0,STARLINK-3822,PAYLOAD,2023-05-06 08:09:29,15.08836926,0.000123,53.2162,90.4514,99.2864,260.8268,4.7762e-05,4.72e-06,0.0,0 STARLINK-3822,1 52287U 22041AC  23126.33992630  .00000472  00000-0  47762-4 0  9995,2 52287  53.2162  90.4514 0001230  99.2864 260.8268 15.08836926 57611,6917.89,95.438,540.606,538.904,0.0
52287.0,STARLINK-3822,PAYLOAD,2023-05-07 01:38:43,15.08845812,0.0001128,53.2159,87.1798,92.5509,267.5612,0.00010383,1.365e-05,0.0,0 STARLINK-3822,1 52287U 22041AC  23127.06855956  .00001365  00000-0  10383-3 0  9995,2 52287  53.2159  87.1798 0001128  92.5509 267.5612 15.08845812 58940,6917.863,95.437,540.508,538.947,0.0
52287.0,STARLINK-3822,PAYLOAD,2023-05-07 04:49:29,15.08848629,0.0001147,53.2158,86.5851,92.6504,267.462,0.00012846,1.758e-05,0.0,0 STARLINK-3822,1 52287U 22041AC  23127.20103704  .00001758  00000-0  12846-3 0  9990,2 52287  53.2158  86.5851 0001147  92.6504 267.4620 15.08848629 57743,6917.854,95.437,540.512,538.926,0.0
52287.0,STARLINK-3822,PAYLOAD,2023-05-08 04:40:18,15.08832803,0.0001271,53.2163,82.1245,86.8691,273.2447,2.8653e-05,1.68e-06,0.0,0 STARLINK-3822,1 52287U 22041AC  23128.19465531  .00000168  00000-0  28653-4 0  9996,2 52287  53.2163  82.1245 0001271  86.8691 273.2447 15.08832803 59110,6917.902,95.438,540.647,538.888,0.0
52287.0,STARLINK-3822,PAYLOAD,2023-05-08 14:12:36,15.08840961,0.000126,53.2175,80.3407,87.3458,272.7678,4.5235e-05,4.32e-06,0.0,0 STARLINK-3822,1 52287U 22041AC  23128.59209036  .00000432  00000-0  45235-4 0  9995,2 52287  53.2175  80.3407 0001260  87.3458 272.7678 15.08840961 59178,6917.877,95.437,540.614,538.871,0.0
52287.0,STARLINK-3822,PAYLOAD,2023-05-09 02:55:40,15.08866034,0.0001267,53.2173,77.9624,81.4725,278.6411,-3.0243e-05,-7.7e-06,0.0,0 STARLINK-3822,1 52287U 22041AC  23129.12199592 -.00000770  00000-0 -30243-4 0  9990,2 52287  53.2173  77.9624 0001267  81.4725 278.6411 15.08866034 58031,6917.801,95.436,540.542,538.789,0.0
52287.0,STARLINK-3822,PAYLOAD,2023-05-10 02:46:28,15.0884553,0.0001297,53.2176,73.5011,95.0708,265.0432,0.00015934,2.249e-05,0.0,0 STARLINK-3822,1 52287U 22041AC  23130.11560627  .00002249  00000-0  15934-3 0  9992,2 52287  53.2176  73.5011 0001297  95.0708 265.0432 15.08845530 58188,6917.863,95.437,540.626,538.831,0.0
52287.0,STARLINK-3822,PAYLOAD,2023-05-11 02:37:15,15.08849304,0.0001485,53.2166,69.0409,92.5302,267.586,7.3866e-05,8.88e-06,0.0,0 STARLINK-3822,1 52287U 22041AC  23131.10920274  .00000888  00000-0  73866-4 0  9996,2 52287  53.2166  69.0409 0001485  92.5302 267.5860 15.08849304 58331,6917.852,95.437,540.744,538.69,0.0
52287.0,STARLINK-3822,PAYLOAD,2023-05-12 02:28:03,15.08832442,0.0001275,53.2168,64.5825,95.7307,264.3831,6.7518e-06,-1.8e-06,0.0,0 STARLINK-3822,1 52287U 22041AC  23132.10281547 -.00000180  00000-0  67518-5 0  9994,2 52287  53.2168  64.5825 0001275  95.7307 264.3831 15.08832442 59702,6917.903,95.438,540.651,538.886,0.0
52287.0,STARLINK-3822,PAYLOAD,2023-05-12 23:08:03,15.08846166,0.0001089,53.2165,60.7147,88.1532,271.9585,0.00013691,1.892e-05,0.0,0 STARLINK-3822,1 52287U 22041AC  23132.96393042  .00001892  00000-0  13691-3 0  9993,2 52287  53.2165  60.7147 0001089  88.1532 271.9585 15.08846166 59835,6917.862,95.437,540.48,538.973,0.0
52287.0,STARLINK-3822,PAYLOAD,2023-05-13 03:54:12,15.08857222,0.0001201,53.2168,59.8245,99.7188,260.394,0.00049654,7.627e-05,0.0,0 STARLINK-3822,1 52287U 22041AC  23133.16264728  .00007627  00000-0  49654-3 0  9994,2 52287  53.2168  59.8245 0001201  99.7188 260.3940 15.08857222 59862,6917.828,95.436,540.524,538.862,0.0
52287.0,STARLINK-3822,PAYLOAD,2023-05-14 03:44:59,15.08854676,0.0001215,53.2164,55.3637,89.9412,270.172,0.00042994,6.564e-05,0.0,0 STARLINK-3822,1 52287U 22041AC  23134.15624919  .00006564  00000-0  42994-3 0  9995,2 52287  53.2164  55.3637 0001215  89.9412 270.1720 15.08854676 60014,6917.836,95.437,540.541,538.86,0.0
